SWAS                    
1 25560U 98071A   26068.53487068  .00004636  00000+0  29986-3 0  9991
2 25560  69.8952 124.3662 0004099  14.3215 345.8065 15.08888192482231
STARLINK-3125           
1 49451U 21104AV  26068.67972407 -.00000018  00000+0  16923-4 0  9999
2 49451  53.2167 219.1640 0001210  87.4509 272.6621 15.08843010238772
